TRANSPORTER-16 OBJECT AR
1 68455U 26067AR  26104.14693356  .00003122  00000+0  16217-3 0  9996
2 68455  97.4525  63.5558 0003928 294.3675  65.7148 15.16823117  2224
